{
  "type": "FeatureCollection",
  "features": [
    {
      "type": "Feature",
      "properties": {
        "norad_id": 40938,
        "name": "BEIDOU-3S IGSO-2S (C56)",
        "group": "gnss",
        "lat": 16.065092459882862,
        "lon": 66.72510462814664,
        "alt_km": 35563.29093661008,
        "timestamp": "2025-12-17T15:50:10.022000+00:00",
        "meta_object_name": "BEIDOU-3S IGSO-2S (C56)",
        "meta_object_id": "2015-053A",
        "meta_epoch": "2025-12-16T17:14:16.267776",
        "meta_mean_motion": 1.00269476,
        "meta_eccentricity": 0.00605277,
        "meta_inclination": 49.5044,
        "meta_ra_of_asc_node": 260.9581,
        "meta_arg_of_pericenter": 188.7289,
        "meta_mean_anomaly": 350.4326,
        "meta_ephemeris_type": 0,
        "meta_classification_type": "U",
        "meta_norad_cat_id": 40938,
        "meta_element_set_no": 999,
        "meta_rev_at_epoch": 3752,
        "meta_bstar": 0,
        "meta_mean_motion_dot": -1.34e-06,
        "meta_mean_motion_ddot": 0,
        "tle_line1": "1 40938U 15053A   25350.71824384 -.00000134  00000+0  00000+0 0  9997",
        "tle_line2": "2 40938  49.5044 260.9581 0060527 188.7289 350.4326  1.00269476 37521"
      },
      "geometry": {
        "type": "Point",
        "coordinates": [
          66.72510462814664,
          16.065092459882862
        ]
      }
    },
    {
      "type": "Feature",
      "properties": {
        "norad_id": 41019,
        "name": "GPS BIIF-11 (PRN 10)",
        "group": "gnss",
        "lat": -55.9164030382522,
        "lon": -67.23394068606927,
        "alt_km": 19935.28367565326,
        "timestamp": "2025-12-17T15:50:10.022015+00:00",
        "meta_object_name": "GPS BIIF-11 (PRN 10)",
        "meta_object_id": "2015-062A",
        "meta_epoch": "2025-12-17T07:07:49.899648",
        "meta_mean_motion": 2.00567236,
        "meta_eccentricity": 0.01109421,
        "meta_inclination": 56.8354,
        "meta_ra_of_asc_node": 37.826,
        "meta_arg_of_pericenter": 230.0562,
        "meta_mean_anomaly": 129.0226,
        "meta_ephemeris_type": 0,
        "meta_classification_type": "U",
        "meta_norad_cat_id": 41019,
        "meta_element_set_no": 999,
        "meta_rev_at_epoch": 7417,
        "meta_bstar": 0,
        "meta_mean_motion_dot": -7.6e-07,
        "meta_mean_motion_ddot": 0,
        "tle_line1": "1 41019U 15062A   25351.29710532 -.00000076  00000+0  00000+0 0  9996",
        "tle_line2": "2 41019  56.8354  37.8260 0110942 230.0562 129.0226  2.00567236 74171"
      },
      "geometry": {
        "type": "Point",
        "coordinates": [
          -67.23394068606927,
          -55.9164030382522
        ]
      }
    },
    {
      "type": "Feature",
      "properties": {
        "norad_id": 41028,
        "name": "GSAT-15 (GAGAN/PRN 139)",
        "group": "gnss",
        "lat": 0.036034369663910146,
        "lon": 57.551223742748,
        "alt_km": 35797.45900874718,
        "timestamp": "2025-12-17T15:50:10.022032+00:00",
        "meta_object_name": "GSAT-15 (GAGAN/PRN 139)",
        "meta_object_id": "2015-065A",
        "meta_epoch": "2025-12-17T02:39:38.687616",
        "meta_mean_motion": 1.00270744,
        "meta_eccentricity": 0.00026292,
        "meta_inclination": 0.0364,
        "meta_ra_of_asc_node": 268.7518,
        "meta_arg_of_pericenter": 321.6882,
        "meta_mean_anomaly": 348.9574,
        "meta_ephemeris_type": 0,
        "meta_classification_type": "U",
        "meta_norad_cat_id": 41028,
        "meta_element_set_no": 999,
        "meta_rev_at_epoch": 3697,
        "meta_bstar": 0,
        "meta_mean_motion_dot": -2.33e-06,
        "meta_mean_motion_ddot": 0,
        "tle_line1": "1 41028U 15065A   25351.11086444 -.00000233  00000+0  00000+0 0  9993",
        "tle_line2": "2 41028   0.0364 268.7518 0002629 321.6882 348.9574  1.00270744 36976"
      },
      "geometry": {
        "type": "Point",
        "coordinates": [
          57.551223742748,
          0.036034369663910146
        ]
      }
    },
    {
      "type": "Feature",
      "properties": {
        "norad_id": 41174,
        "name": "GSAT0209 (GALILEO 12)",
        "group": "gnss",
        "lat": -53.45156586514004,
        "lon": 39.41176436033567,
        "alt_km": 23225.00132418352,
        "timestamp": "2025-12-17T15:50:10.022045+00:00",
        "meta_object_name": "GSAT0209 (GALILEO 12)",
        "meta_object_id": "2015-079A",
        "meta_epoch": "2025-12-13T16:16:46.046208",
        "meta_mean_motion": 1.70474514,
        "meta_eccentricity": 0.00024314,
        "meta_inclination": 55.7133,
        "meta_ra_of_asc_node": 106.3552,
        "meta_arg_of_pericenter": 349.5598,
        "meta_mean_anomaly": 10.4024,
        "meta_ephemeris_type": 0,
        "meta_classification_type": "U",
        "meta_norad_cat_id": 41174,
        "meta_element_set_no": 999,
        "meta_rev_at_epoch": 6161,
        "meta_bstar": 0,
        "meta_mean_motion_dot": -1e-08,
        "meta_mean_motion_ddot": 0,
        "tle_line1": "1 41174U 15079A   25347.67831072 -.00000001  00000+0  00000+0 0  9994",
        "tle_line2": "2 41174  55.7133 106.3552 0002431 349.5598  10.4024  1.70474514 61616"
      },
      "geometry": {
        "type": "Point",
        "coordinates": [
          39.41176436033567,
          -53.45156586514004
        ]
      }
    },
    {
      "type": "Feature",
      "properties": {
        "norad_id": 41175,
        "name": "GSAT0208 (GALILEO 11)",
        "group": "gnss",
        "lat": 25.580176200957826,
        "lon": -92.80847051756147,
        "alt_km": 23223.893046077494,
        "timestamp": "2025-12-17T15:50:10.022056+00:00",
        "meta_object_name": "GSAT0208 (GALILEO 11)",
        "meta_object_id": "2015-079B",
        "meta_epoch": "2025-12-12T17:24:26.771040",
        "meta_mean_motion": 1.70474307,
        "meta_eccentricity": 0.00018806,
        "meta_inclination": 55.7111,
        "meta_ra_of_asc_node": 106.3784,
        "meta_arg_of_pericenter": 358.3144,
        "meta_mean_anomaly": 1.6545,
        "meta_ephemeris_type": 0,
        "meta_classification_type": "U",
        "meta_norad_cat_id": 41175,
        "meta_element_set_no": 999,
        "meta_rev_at_epoch": 6201,
        "meta_bstar": 0,
        "meta_mean_motion_dot": 4e-08,
        "meta_mean_motion_ddot": 0,
        "tle_line1": "1 41175U 15079B   25346.72530985  .00000004  00000+0  00000+0 0  9991",
        "tle_line2": "2 41175  55.7111 106.3784 0001880 358.3144   1.6545  1.70474307 62017"
      },
      "geometry": {
        "type": "Point",
        "coordinates": [
          -92.80847051756147,
          25.580176200957826
        ]
      }
    },
    {
      "type": "Feature",
      "properties": {
        "norad_id": 41241,
        "name": "IRNSS-1E",
        "group": "gnss",
        "lat": 7.249388741390006,
        "lon": 73.74205147096416,
        "alt_km": 35877.010742458326,
        "timestamp": "2025-12-17T15:50:10.022069+00:00",
        "meta_object_name": "IRNSS-1E",
        "meta_object_id": "2016-003A",
        "meta_epoch": "2025-12-16T15:11:45.803328",
        "meta_mean_motion": 1.00272235,
        "meta_eccentricity": 0.00217171,
        "meta_inclination": 32.8339,
        "meta_ra_of_asc_node": 62.3964,
        "meta_arg_of_pericenter": 188.1276,
        "meta_mean_anomaly": 174.7175,
        "meta_ephemeris_type": 0,
        "meta_classification_type": "U",
        "meta_norad_cat_id": 41241,
        "meta_element_set_no": 999,
        "meta_rev_at_epoch": 3625,
        "meta_bstar": 0,
        "meta_mean_motion_dot": -3.06e-06,
        "meta_mean_motion_ddot": 0,
        "tle_line1": "1 41241U 16003A   25350.63316902 -.00000306  00000+0  00000+0 0  9995",
        "tle_line2": "2 41241  32.8339  62.3964 0021717 188.1276 174.7175  1.00272235 36253"
      },
      "geometry": {
        "type": "Point",
        "coordinates": [
          73.74205147096416,
          7.249388741390006
        ]
      }
    },
    {
      "type": "Feature",
      "properties": {
        "norad_id": 41328,
        "name": "GPS BIIF-12 (PRN 32)",
        "group": "gnss",
        "lat": -16.878974209140097,
        "lon": -71.27320881235627,
        "alt_km": 20004.679633239673,
        "timestamp": "2025-12-17T15:50:10.022081+00:00",
        "meta_object_name": "GPS BIIF-12 (PRN 32)",
        "meta_object_id": "2016-007A",
        "meta_epoch": "2025-12-14T21:16:57.823104",
        "meta_mean_motion": 2.00560623,
        "meta_eccentricity": 0.00922757,
        "meta_inclination": 55.4074,
        "meta_ra_of_asc_node": 96.7717,
        "meta_arg_of_pericenter": 243.6198,
        "meta_mean_anomaly": 115.4149,
        "meta_ephemeris_type": 0,
        "meta_classification_type": "U",
        "meta_norad_cat_id": 41328,
        "meta_element_set_no": 999,
        "meta_rev_at_epoch": 7214,
        "meta_bstar": 0,
        "meta_mean_motion_dot": -3.3e-07,
        "meta_mean_motion_ddot": 0,
        "tle_line1": "1 41328U 16007A   25348.88678036 -.00000033  00000+0  00000+0 0  9995",
        "tle_line2": "2 41328  55.4074  96.7717 0092275 243.6198 115.4149  2.00560623 72143"
      },
      "geometry": {
        "type": "Point",
        "coordinates": [
          -71.27320881235627,
          -16.878974209140097
        ]
      }
    }
  ]
}